{"fetched_at":"2026-05-03T13:08:49Z","count":17086,"tles":[{"name":"ATLAS 5 CENTAUR DEB","line1":"1 52045U 18079GP  26104.77683241 -.00000041  00000+0  00000+0 0  9996","line2":"2 52045  13.2175  64.1675 4568226 248.7580  57.6157  1.72867749 29590","category":"Other"},{"name":"STARLINK-31180","line1":"1 58732U 24005E   26122.89267053  .00000793  00000+0  38349-4 0  9998","line2":"2 58732  43.0015 273.6225 0001688 267.3213  92.7446 15.27575332128726","category":"Starlink"},{"name":"STARLINK-34579","line1":"1 64925U 25157X   26123.16245569  .00034840  00000+0  11823-2 0  9993","line2":"2 64925  53.1612  92.6551 0001290  95.3453 264.7694 15.30217030 44463","category":"Starlink"},{"name":"FALCON 9 R/B","line1":"1 62029U 24214B   24352.57840669  .00003208  00000+0  13888-2 0  9995","line2":"2 62029  27.7071 164.1234 8172499 186.3394 144.3359  1.26554658   371","category":"Other"},{"name":"STARLINK-36327","line1":"1 67738U 26026T   26123.07577737  .00027335  00000+0  84579-3 0  9999","line2":"2 67738  97.2853 176.9561 0001517  91.5652 268.5764 15.33451203 12462","category":"Starlink"},{"name":"CZ-3B DEB","line1":"1 40187U 11077L   26104.53377601 -.00000270  00000+0 -42582-3 0  9995","line2":"2 40187  26.7240  10.9485 7392153  11.4315 358.8109  1.91005910 93399","category":"Other"},{"name":"STARLINK-31794","line1":"1 59803U 24093X   26123.10179679  .00000990  00000+0  45523-4 0  9997","line2":"2 59803  43.0053 261.8962 0001246 271.9179  88.1530 15.27571610111086","category":"Starlink"},{"name":"QIANFAN-100","line1":"1 66042U 25233K   26122.09083307  .00000148  00000+0  21058-3 0  9997","line2":"2 66042  89.0038  47.7634 0002455  73.7433 286.3989 13.51003187 27016","category":"Other"},{"name":"STARLINK-11613 [DTC]","line1":"1 63136U 25043E   26123.15019988  .00260383  00000+0  19643-2 0  9994","line2":"2 63136  42.9998 282.7773 0001267  40.6408 319.4554 15.70906614 68033","category":"Starlink"},{"name":"STARLINK-37313","line1":"1 68790U 26086AA  26123.16670139 -.01964333  00000+0 -14055-1 0  9995","line2":"2 68790  97.2827 158.9806 0001364  87.8458 253.3424 15.76954813  3306","category":"Starlink"},{"name":"COSMOS 2251 DEB","line1":"1 33785U 93036AA  26104.55717771  .00003841  00000+0  59372-3 0  9994","line2":"2 33785  73.8658 178.5244 0016831  92.4621 333.3684 14.73580395903141","category":"Other"},{"name":"ONEWEB-0264","line1":"1 48982U 21060R   26123.04210623 -.00000066  00000+0 -20611-3 0  9998","line2":"2 48982  87.9090 237.7494 0002131  98.2784 261.8589 13.16595900233654","category":"Other"},{"name":"STARLINK-34171","line1":"1 64082U 25107U   26122.82436995  .00024879  00000+0  91093-3 0  9998","line2":"2 64082  43.0010 255.4772 0001235 249.3799 110.6920 15.27566510 54406","category":"Starlink"},{"name":"FENGYUN 1C DEB","line1":"1 31095U 99025BGR 26104.06305324 -.00000132  00000+0 -16027-3 0  9995","line2":"2 31095  98.5762 227.2660 0498349 258.9692  95.5005 13.06712920910454","category":"Weather"},{"name":"FLOCK 4S-40","line1":"1 47499C 21006CQ  23256.33907407  .00049953  00000-0  14362-2 0  2567","line2":"2 47499  97.3890 315.5034 0008403 129.1489  89.0419 15.35774004    19","category":"Other"},{"name":"CZ-6A DEB","line1":"1 60799U 24140GA  24249.29658846  .00001592  00000+0  35370-3 0  9998","line2":"2 60799  88.9792 347.4892 0113991 321.8056  37.5113 14.52622572  3539","category":"Other"},{"name":"STARLINK-35942","line1":"1 66926U 25286B   26123.19564706  .00030871  00000+0  10496-2 0  9994","line2":"2 66926  53.1598 105.1538 0001354  93.2964 266.8192 15.30214051 23765","category":"Starlink"},{"name":"STARLINK-4063","line1":"1 53132U 22083A   23362.50003794  .00000400  00000+0  43222-4 0  9993","line2":"2 53132  53.2162 175.2891 0001466 102.7166 257.3990 15.08838456 80740","category":"Starlink"},{"name":"STARLINK-31369","line1":"1 58975U 24031L   26123.10283616  .00000490  00000+0  28649-4 0  9990","line2":"2 58975  53.1613  43.9788 0000837  98.7581 261.3515 15.30197833124842","category":"Starlink"},{"name":"STARLINK-34257","line1":"1 65225U 25176AD  26123.10127992  .00020831  00000+0  71325-3 0  9990","line2":"2 65225  53.1617 259.8037 0002314  86.4877 273.6388 15.30208788 41395","category":"Starlink"},{"name":"STARLINK-11489 [DTC]","line1":"1 62271U 24237E   26122.97491804  .00180022  00000+0  13695-2 0  9999","line2":"2 62271  43.0014  89.9585 0001466 258.6911 101.3792 15.70956831 81585","category":"Starlink"},{"name":"STARLINK-36266","line1":"1 67984U 26038Z   26123.04097073  .00019944  00000+0  61822-3 0  9995","line2":"2 67984  97.2829 133.4594 0002153  96.1998 263.9490 15.33455786 11579","category":"Starlink"},{"name":"ASC 1","line1":"1 15994U 85076C   26105.10401485 -.00000083  00000+0  00000+0 0  9991","line2":"2 15994  13.8428 343.8113 0003212  59.1390  87.7222  1.00314433117347","category":"Other"},{"name":"CZ-3B DEB","line1":"1 42472U 11077AM  26058.83914332 -.00000250  00000+0  00000+0 0  9995","line2":"2 42472  25.8633 332.2967 7178161 216.3672  61.7467  1.79310469 73076","category":"Other"},{"name":"STARLINK-5096","line1":"1 54006U 22125AU  26122.84059400 -.00000098  00000+0  11937-4 0  9992","line2":"2 54006  53.2182 330.6012 0001363  93.9335 266.1813 15.08839382197638","category":"Starlink"},{"name":"STARLINK-32016","line1":"1 60096U 24117F   26122.77286627 -.00000434  00000+0 -25352-5 0  9998","line2":"2 60096  53.1602 146.1409 0001002  97.2541 262.8573 15.30188292105161","category":"Starlink"},{"name":"STARLINK-35774","line1":"1 66283U 25247U   26122.91235154  .00018758  00000+0  64434-3 0  9990","line2":"2 66283  53.1585 299.7044 0000963  70.3045 289.8059 15.30175363 29338","category":"Starlink"},{"name":"FENGYUN 1C DEB","line1":"1 32187U 99025CUH 26102.70561387  .00000227  00000+0  32134-3 0  9990","line2":"2 32187  99.4901 181.3380 0293242 202.7447 312.0988 13.50579359678916","category":"Weather"},{"name":"STARLINK-2571","line1":"1 48401U 21038BA  26123.13817169  .00013568  00000+0  44830-3 0  9995","line2":"2 48401  53.1627  79.7529 0001345 107.0840 253.0309 15.31690746275777","category":"Starlink"},{"name":"TJS-16","line1":"1 63397U 25064A   26122.70524581 -.00000098  00000+0  00000+0 0  9996","line2":"2 63397   0.9817  81.6233 0004523 284.1084 269.3247  1.00271533  3939","category":"Other"},{"name":"STARLINK-6171","line1":"1 76171C 23083H   23172.41645833  .00024912  00000-0  18932-3 0  1724","line2":"2 76171  43.0030  89.6846 0001651 264.0154 291.0388 15.71331197    10","category":"Starlink"},{"name":"FENGYUN 1C DEB","line1":"1 29785U 99025CB  23178.74264399  .00039149  00000+0  37490-2 0  9991","line2":"2 29785  99.0361 351.5743 0043839 274.2363  85.3843 14.92315827872092","category":"Weather"},{"name":"ONEWEB-0061","line1":"1 45428U 20020E   26123.15350081 -.00000435  00000+0 -12644-2 0  9996","line2":"2 45428  87.8931  30.0083 0001852  77.6167 282.5168 13.11418219296724","category":"Other"},{"name":"STARLINK-5909","line1":"1 55938U 23037AA  26123.19206494  .00000063  00000+0  13090-4 0  9999","line2":"2 55938  69.9994 147.0590 0003439 268.9805  91.0960 14.98330805172142","category":"Starlink"},{"name":"COSMOS 2251 DEB","line1":"1 35592U 93036AMK 23178.95069972  .00015125  00000+0  10914-2 0  9993","line2":"2 35592  74.0059  63.5851 0092087  45.1269 315.7347 15.00703432766129","category":"Other"},{"name":"ONEWEB-0443","line1":"1 51637U 22012R   26123.11794721  .00000079  00000+0  17119-3 0  9992","line2":"2 51637  87.9175  14.8368 0002170  83.9053 276.2326 13.17648806207785","category":"Other"},{"name":"STARLINK-30495","line1":"1 57968U 23151E   26123.13970713 -.00000483  00000+0 -80267-5 0  9996","line2":"2 57968  43.0055  28.5144 0001316 279.8427  80.2276 15.27570041144093","category":"Starlink"},{"name":"STARLINK-34314","line1":"1 64146U 25112A   26123.16473436 -.00001212  00000+0 -79844-4 0  9993","line2":"2 64146  97.5430 175.1292 0000265  87.6269 272.4988 15.05652574 51500","category":"Starlink"},{"name":"FENGYUN 1C DEB","line1":"1 31206U 99025BKL 26104.55373149  .00001102  00000+0  34526-3 0  9993","line2":"2 31206  98.8423  21.6280 0077022 357.5229   2.5567 14.41087350996145","category":"Weather"},{"name":"STARLINK-1970","line1":"1 47571U 21009Z   23362.02118769  .00003853  00000+0  27742-3 0  9999","line2":"2 47571  53.0541  14.9388 0001841  94.1032 266.0168 15.06396312160563","category":"Starlink"},{"name":"STARLINK-5872","line1":"1 57232U 23094Q   26122.36752785 -.00000350  00000+0 -31891-5 0  9999","line2":"2 57232  43.0053  87.6628 0001321 257.1247 102.9457 15.27590464155987","category":"Starlink"},{"name":"CZ-6A DEB","line1":"1 60863U 24140JS  24248.22034225  .00001941  00000+0  84948-3 0  9994","line2":"2 60863  89.0227 347.9750 0027862 156.8870 203.3583 14.23196940  2834","category":"Other"},{"name":"TJS-22","line1":"1 66990U 25290A   26122.99524079 -.00000001  00000+0  00000+0 0  9996","line2":"2 66990   1.6393 286.0328 0002206 359.9423 359.7224  1.00273999  1573","category":"Other"},{"name":"GPS BIIF-4","line1":"1 39166U 13023A   26122.81245240 -.00000043  00000+0  00000+0 0  9999","line2":"2 39166  54.5411 270.8211 0141917  50.7230 310.4891  2.00563861 94974","category":"GPS"},{"name":"STARLINK-4417","line1":"1 53200U 22084M   26123.10853249  .00001445  00000+0  10432-3 0  9998","line2":"2 53200  97.5397 184.7581 0001422 141.2204 218.9125 15.05643045208224","category":"Starlink"},{"name":"STARLINK-31225","line1":"1 59040U 24038T   26123.17355162 -.00000025  00000+0  85936-5 0  9992","line2":"2 59040  43.0022  75.5916 0000564 304.6680  55.4118 15.27572601123024","category":"Starlink"},{"name":"STARLINK-35002","line1":"1 65291U 25184U   26123.10239742  .00005188  00000+0  36339-3 0  9993","line2":"2 65291  97.5411 176.1650 0001723 122.4337 237.7057 15.05654592 39480","category":"Starlink"},{"name":"PIESAT-2 12","line1":"1 62336U 24241D   26123.19481927  .00009377  00000+0  52257-3 0  9997","line2":"2 62336  97.5244  71.2032 0002123  95.5306 264.6168 15.13814599 75993","category":"Other"}]}